ONEWEB-0656             
1 55817U 23029X   25019.95183713  .00000092  00000+0  19516-3 0  9991
2 55817  87.9259  16.5262 0002188  73.5018 286.6355 13.20772447 93401
ONEWEB-0657             
1 55818U 23029Y   25019.64164693  .00000052  00000+0  97673-4 0  9991
2 55818  87.9150  47.0820 0002656  88.0645 272.0792 13.19726961 91172
ONEWEB-0658             
1 55819U 23029Z   25019.63690695 -.00000204  00000+0 -54115-3 0  9991
2 55819  87.9150  47.0172 0002007 110.0824 250.0525 13.19724400 91185
ONEWEB-0660             
1 55820U 23029AA  25019.94056132  .00000250  00000+0  63873-3 0  9999
2 55820  87.8989  31.7318 0001444  99.7978 260.3315 13.14502085 91971
ONEWEB-0661             
1 55821U 23029AB  25019.59485466 -.00000200  00000+0 -57345-3 0  9991
2 55821  87.8991  31.8696 0001360  95.9813 264.1472 13.14505759 91919
ONEWEB-0662             
1 55822U 23029AC  25019.93421165  .00000187  00000+0  47037-3 0  9995
2 55822  87.8990  31.8093 0001521 102.7071 257.4229 13.14500956 92002
ONEWEB-0663             
1 55823U 23029AD  25019.93951941  .00000129  00000+0  28519-3 0  9996
2 55823  87.9257  16.5869 0001531 101.2579 258.8726 13.20821064 93392
ONEWEB-0664             
1 55824U 23029AE  25019.93920294  .00000134  00000+0  29769-3 0  9998
2 55824  87.9259  16.6041 0001439  76.4983 283.6310 13.20773154 93398
